     2.11           N: GPS NAV DATA                         RINEX VERSION / TYPE
teqc  2017Sep15     cors-adm            20180112 15:49:05UTCPGM / RUN BY / DATE
Solaris x86 5.10|AMD64|cc SC5.8 -xarch=amd64|=+|=+          COMMENT
     2.10           N: GPS NAV DATA                         COMMENT
rvacn.e(1404.07)                        2018-01-12T12:53 GMTCOMMENT
This file contains the validated broadcast navigation       COMMENT
messages from the following files:                          COMMENT
abmf0080.18n, albh0080.18n, alic0080.18n, areq0080.18n,     COMMENT
badg0080.18n, bjco0080.18n, brft0080.18n, cas10080.18n,     COMMENT
chpi0080.18n, chum0080.18n, chur0080.18n, ckis0080.18n,     COMMENT
cnmr0080.18n, coco0080.18n, daej0080.18n, darw0080.18n,     COMMENT
dav10080.18n, dgar0080.18n, drao0080.18n, faa10080.18n,     COMMENT
fair0080.18n, falk0080.18n, flin0080.18n, func0080.18n,     COMMENT
glps0080.18n, gode0080.18n, godz0080.18n, gol20080.18n,     COMMENT
gold0080.18n, guam0080.18n, guat0080.18n, guug0080.18n,     COMMENT
harb0080.18n, hlfx0080.18n, hnlc0080.18n, hob20080.18n,     COMMENT
holb0080.18n, hrao0080.18n, hyde0080.18n, iisc0080.18n,     COMMENT
kat10080.18n, kerg0080.18n, kiri0080.18n, kiru0080.18n,     COMMENT
kokb0080.18n, kokv0080.18n, kour0080.18n, krgg0080.18n,     COMMENT
laut0080.18n, lmmf0080.18n, lpal0080.18n, mac10080.18n,     COMMENT
mal20080.18n, mas10080.18n, mat10080.18n, mate0080.18n,     COMMENT
maui0080.18n, maw10080.18n, mbar0080.18n, mcm40080.18n,     COMMENT
mdvj0080.18n, mkea0080.18n, mobs0080.18n, nain0080.18n,     COMMENT
nano0080.18n, naur0080.18n, nium0080.18n, nklg0080.18n,     COMMENT
nnor0080.18n, not10080.18n, nya10080.18n, nyal0080.18n,     COMMENT
ohi20080.18n, ohi30080.18n, pert0080.18n, pie10080.18n,     COMMENT
pohn0080.18n, pol20080.18n, qaq10080.18n, qiki0080.18n,     COMMENT
reun0080.18n, sant0080.18n, sch20080.18n, scor0080.18n,     COMMENT
scub0080.18n, shao0080.18n, sthl0080.18n, stjo0080.18n,     COMMENT
suth0080.18n, suwn0080.18n, sydn0080.18n, syog0080.18n,     COMMENT
thti0080.18n, tid10080.18n, tidb0080.18n, tow20080.18n,     COMMENT
tro10080.18n, tuva0080.18n, unbj0080.18n, vacs0080.18n,     COMMENT
vndp0080.18n, whit0080.18n, will0080.18n, xmis0080.18n,     COMMENT
yar20080.18n, yell0080.18n                                  COMMENT
    7.4506D-09 -1.4901D-08 -5.9605D-08  1.1921D-07          ION ALPHA
    9.0112D+04 -6.5536D+04 -1.3107D+05  4.5875D+05          ION BETA
   -1.862645149231D-09-3.552713678801D-15   319488     1983 DELTA-UTC: A0,A1,T,W
                                                            END OF HEADER
 7 18  1  8 12  0  0.0 2.545099705458D-04-5.456968210638D-12 0.000000000000D+00
    5.000000000000D+00 3.628125000000D+01 4.635550165943D-09-2.808244879586D+00
    1.763924956322D-06 1.110316847917D-02 5.507841706276D-06 5.153698978424D+03
    1.296000000000D+05 0.000000000000D+00 2.913845981015D+00-1.564621925354D-07
    9.601810835791D-01 2.734375000000D+02-2.544885106302D+00-8.061050493779D-09
   -2.642967268651D-11 1.000000000000D+00 1.983000000000D+03 0.000000000000D+00
    2.000000000000D+00 0.000000000000D+00-1.117587089539D-08 5.000000000000D+00
    0.000000000000D+00
 8 18  1  8 12  0  0.0-8.695991709828D-05-1.364242052659D-12 0.000000000000D+00
    5.200000000000D+01 4.812500000000D+00 4.246248241913D-09 5.195595251683D-01
    2.402812242508D-07 3.165715374053D-03 7.756054401398D-06 5.153748687744D+03
    1.296000000000D+05 2.235174179077D-08-1.305757005060D+00-8.381903171539D-08
    9.682621274784D-01 2.336875000000D+02-6.037660070605D-01-8.062478684678D-09
    1.871506560835D-10 1.000000000000D+00 1.983000000000D+03 0.000000000000D+00
    2.000000000000D+00 0.000000000000D+00 5.587935447693D-09 5.200000000000D+01
    1.224000000000D+05
10 18  1  8 12  0  0.0 1.428341493011D-04 5.911715561524D-12 0.000000000000D+00
    6.000000000000D+00-5.856250000000D+01 4.660551056190D-09 2.147148849482D+00
   -2.956017851830D-06 3.132630954497D-03 8.700415492058D-06 5.153670721054D+03
    1.296000000000D+05-5.587935447693D-08 7.972930698395D-01 1.862645149231D-08
    9.606229418928D-01 2.137812500000D+02-2.868349040034D+00-8.118552052849D-09
   -1.664355042674D-10 1.000000000000D+00 1.983000000000D+03 0.000000000000D+00
    2.000000000000D+00 0.000000000000D+00 1.862645149231D-09 6.000000000000D+00
    1.224000000000D+05
12 18  1  8 12  0  0.0 3.565112128854D-04-1.818989403546D-12 0.000000000000D+00
    6.500000000000D+01-1.731250000000D+01 3.783371838040D-09 2.892160859594D+00
   -9.015202522278D-07 6.769630359486D-03 8.402392268181D-06 5.153665977478D+03
    1.296000000000D+05 5.774199962616D-08-2.280268216793D+00-5.960464477539D-08
    9.878130167314D-01 2.300312500000D+02 9.116311364332D-01-7.696749015906D-09
   -2.189376874240D-10 1.000000000000D+00 1.983000000000D+03 0.000000000000D+00
    2.000000000000D+00 0.000000000000D+00-1.257285475731D-08 6.500000000000D+01
    1.224300000000D+05
13 18  1  8 12  0  0.0-9.523425251245D-05-2.273736754432D-13 0.000000000000D+00
    8.100000000000D+01 4.868750000000D+01 4.369110406799D-09-1.417315063559D+00
    2.458691596985D-06 3.704238799401D-03 9.633600711823D-06 5.153660978317D+03
    1.296000000000D+05-2.048909664154D-08 1.965387252691D+00 1.024454832077D-07
    9.684941067870D-01 1.961875000000D+02 1.638757300911D+00-7.978189664470D-09
    8.571785642397D-11 1.000000000000D+00 1.983000000000D+03 0.000000000000D+00
    2.000000000000D+00 0.000000000000D+00-1.117587089539D-08 8.100000000000D+01
    1.224300000000D+05
14 18  1  8 12  0  0.0-9.203329682350D-05-6.821210263297D-13 0.000000000000D+00
    2.000000000000D+00 2.968750000000D+01 4.642693340884D-09-2.727339782478D-01
    1.624226570129D-06 9.251877083443D-03 9.424984455109D-06 5.153727060318D+03
    1.296000000000D+05-4.470348358154D-08 1.924411963277D+00 7.264316082001D-08
    9.610148137587D-01 2.002812500000D+02-1.954408387514D+00-8.220699676542D-09
    4.357324223658D-11 1.000000000000D+00 1.983000000000D+03 0.000000000000D+00
    2.000000000000D+00 0.000000000000D+00-9.778887033463D-09 2.000000000000D+00
    1.224000000000D+05
15 18  1  8 12  0  0.0-3.573819994926D-04 0.000000000000D+00 0.000000000000D+00
    6.200000000000D+01 3.431250000000D+01 5.291648896844D-09-7.968909238999D-01
    1.799315214157D-06 1.012301305309D-02 1.017376780510D-05 5.153672384262D+03
    1.296000000000D+05 1.844018697739D-07 1.768477380570D+00 1.676380634308D-07
    9.281481047512D-01 1.645625000000D+02 6.573201493026D-01-8.460709466362D-09
    2.535819991489D-11 1.000000000000D+00 1.983000000000D+03 0.000000000000D+00
    2.000000000000D+00 0.000000000000D+00-1.071020960808D-08 6.200000000000D+01
    1.229400000000D+05
16 18  1  8 12  0  0.0 3.437232226133D-05-5.684341886081D-13 0.000000000000D+00
    6.000000000000D+00-1.203125000000D+01 3.831945330190D-09 9.636071499456D-01
   -4.768371582031D-07 9.677042136900D-03 7.541850209236D-06 5.153566484451D+03
    1.296000000000D+05-1.061707735062D-07-2.261376734938D+00 1.061707735062D-07
    9.882495046729D-01 2.490625000000D+02 4.545782182074D-01-7.874256565821D-09
   -2.721541934574D-10 1.000000000000D+00 1.983000000000D+03 0.000000000000D+00
    2.000000000000D+00 0.000000000000D+00-1.071020960808D-08 6.000000000000D+00
    1.293900000000D+05 4.000000000000D+00
17 18  1  8 12  0  0.0-1.323702745140D-04 2.842170943040D-12 0.000000000000D+00
    9.800000000000D+01 2.065625000000D+01 4.108742679421D-09-7.490419983201D-03
    9.592622518539D-07 1.235156587791D-02 8.326023817062D-06 5.153742803574D+03
    1.296000000000D+05-2.160668373108D-07-1.245111534202D+00 1.396983861923D-07
    9.816370652154D-01 2.339062500000D+02-1.807431332667D+00-8.089622305363D-09
    2.507247187644D-10 1.000000000000D+00 1.983000000000D+03 0.000000000000D+00
    2.800000000000D+00 0.000000000000D+00-1.117587089539D-08 9.800000000000D+01
    1.224300000000D+05
18 18  1  8 12  0  0.0 6.335857324302D-04 0.000000000000D+00 0.000000000000D+00
    4.000000000000D+00-6.803125000000D+01 5.431654821654D-09 1.561144465830D+00
   -3.829598426819D-06 1.833310816437D-02 8.249655365944D-06 5.153650247574D+03
    1.296000000000D+05-1.639127731323D-07 7.470051833300D-01-4.768371582031D-07
    9.263643994584D-01 2.068437500000D+02-1.760652786210D+00-8.580357406327D-09
   -1.585780339831D-10 1.000000000000D+00 1.983000000000D+03 0.000000000000D+00
    2.000000000000D+00 0.000000000000D+00-1.117587089539D-08 4.000000000000D+00
    1.275600000000D+05 4.000000000000D+00
19 18  1  8 12  0  0.0-4.649925976992D-04 2.387423592154D-12 0.000000000000D+00
    3.000000000000D+00 2.550000000000D+01 4.049097057646D-09 2.997943869036D+00
    1.177191734314D-06 9.719989262521D-03 8.223578333855D-06 5.153698547363D+03
    1.296000000000D+05 4.842877388000D-08-1.197790220268D+00-8.568167686462D-08
    9.790698239252D-01 2.295625000000D+02 1.110122904298D+00-7.753180319980D-09
    2.721541880746D-10 1.000000000000D+00 1.983000000000D+03 0.000000000000D+00
    2.000000000000D+00 0.000000000000D+00-1.536682248116D-08 3.000000000000D+00
    1.224300000000D+05
20 18  1  8 12  0  0.0 4.977523349226D-04 1.023181539495D-12 0.000000000000D+00
    8.600000000000D+01-6.118750000000D+01 5.439869443791D-09-1.061469031452D+00
   -3.090128302574D-06 4.576730658300D-03 8.305534720421D-06 5.153771526337D+03
    1.296000000000D+05-4.656612873077D-08 6.959892463800D-01 1.862645149231D-08
    9.278198932284D-01 2.015312500000D+02 1.758837797877D+00-8.570356868631D-09
   -1.803646537679D-10 1.000000000000D+00 1.983000000000D+03 0.000000000000D+00
    2.000000000000D+00 0.000000000000D+00-8.381903171539D-09 8.600000000000D+01
    1.224300000000D+05
